{
  "norad_id": 61939,
  "name": "STARLINK-11407 [DTC]",
  "history": [
    {
      "epoch": "2026-03-28T19:22:51.036960Z",
      "apogee_km": 360.21594103969437,
      "perigee_km": 358.870695787321,
      "latitude_deg": -2.9288400426864597e-05,
      "longitude_deg": 159.8571453244397,
      "height_km": 360.70351323690096,
      "semi_major_axis_km": 6737.680318413508,
      "eccentricity": 9.983e-05,
      "inclination_deg": 53.1574,
      "raan_deg": 276.7925,
      "arg_perigee_deg": 111.5047,
      "mean_anomaly_deg": 248.6077,
      "mean_motion_rev_day": 15.69774103
    }
  ]
}